start=new Date('2023-04-21T00:00:00.000Z').valueOf();
sats=[{"RA_OF_ASC_NODE":"31.0888","ARG_OF_PERICENTER":"94.3305","REV_AT_EPOCH":"11560","TIME_SYSTEM":"UTC","OBJECT_ID":"2021-024E","OBJECT_TYPE":"PAYLOAD","MEAN_MOTION":"15.06511672","GP_ID":"230427849","FILE":"3890827","TLE_LINE1":"1 47981U 21024E   23110.04803238  .00039967  00000-0  26788-2 0  9990","MEAN_MOTION_DDOT":"0.0000000000000","OBJECT_NAME":"STARLINK-2303","RCS_SIZE":"LARGE","SITE":"AFETR","COUNTRY_CODE":"US","EPOCH":"2023-04-20T01:09:09.997632","APOAPSIS":"547.785","ECCENTRICITY":"0.00013200","TLE_LINE2":"2 47981  53.0571  31.0888 0001320  94.3305 265.7835 15.06511672115603","REF_FRAME":"TEME","PERIAPSIS":"545.957","CENTER_NAME":"EARTH","PERIOD":"95.585","SEMIMAJOR_AXIS":"6925.006","LAUNCH_DATE":"2021-03-24","EPHEMERIS_TYPE":"0","DECAY_DATE":null,"MEAN_MOTION_DOT":"0.00039967","BSTAR":"0.00267880000000","MEAN_ELEMENT_THEORY":"SGP4","INCLINATION":"53.0571","ELEMENT_SET_NO":"999","MEAN_ANOMALY":"265.7835","NORAD_CAT_ID":"47981","CLASSIFICATION_TYPE":"U"},{"MEAN_MOTION_DDOT":"0.0000000000000","TLE_LINE1":"1 47982U 21024F   23110.69217913  .00003916  00000-0  28175-3 0  9999","FILE":"3891109","GP_ID":"230460124","MEAN_MOTION":"15.06383731","OBJECT_ID":"2021-024F","OBJECT_TYPE":"PAYLOAD","TIME_SYSTEM":"UTC","REV_AT_EPOCH":"11662","ARG_OF_PERICENTER":"102.2967","RA_OF_ASC_NODE":"318.1947","EPOCH":"2023-04-20T16:36:44.276832","APOAPSIS":"548.177","COUNTRY_CODE":"US","SITE":"AFETR","RCS_SIZE":"LARGE","OBJECT_NAME":"STARLINK-2317","LAUNCH_DATE":"2021-03-24","SEMIMAJOR_AXIS":"6925.398","PERIOD":"95.593","CENTER_NAME":"EARTH","REF_FRAME":"TEME","PERIAPSIS":"546.350","TLE_LINE2":"2 47982  53.0526 318.1947 0001319 102.2967 257.8170 15.06383731116620","ECCENTRICITY":"0.00013190","CLASSIFICATION_TYPE":"U","NORAD_CAT_ID":"47982","MEAN_ANOMALY":"257.8170","ELEMENT_SET_NO":"999","INCLINATION":"53.0526","MEAN_ELEMENT_THEORY":"SGP4","BSTAR":"0.00028175000000","MEAN_MOTION_DOT":"0.00003916","DECAY_DATE":null,"EPHEMERIS_TYPE":"0"},{"SITE":"AFETR","RCS_SIZE":"LARGE","OBJECT_NAME":"STARLINK-2308","EPOCH":"2023-04-20T21:30:41.272992","APOAPSIS":"547.828","COUNTRY_CODE":"US","TIME_SYSTEM":"UTC","REV_AT_EPOCH":"11657","ARG_OF_PERICENTER":"71.3437","RA_OF_ASC_NODE":"322.4421","MEAN_MOTION_DDOT":"0.0000000000000","TLE_LINE1":"1 47985U 21024J   23110.89631103  .00016576  00000-0  11304-2 0  9996","FILE":"3891109","GP_ID":"230460375","MEAN_MOTION":"15.06356683","OBJECT_ID":"2021-024J","OBJECT_TYPE":"PAYLOAD","MEAN_ELEMENT_THEORY":"SGP4","BSTAR":"0.00113040000000","MEAN_MOTION_DOT":"0.00016576","DECAY_DATE":null,"EPHEMERIS_TYPE":"0","CLASSIFICATION_TYPE":"U","NORAD_CAT_ID":"47985","MEAN_ANOMALY":"288.7627","ELEMENT_SET_NO":"999","INCLINATION":"53.0527","REF_FRAME":"TEME","PERIAPSIS":"546.864","TLE_LINE2":"2 47985  53.0527 322.4421 0000696  71.3437 288.7627 15.06356683116574","ECCENTRICITY":"0.00006960","LAUNCH_DATE":"2021-03-24","SEMIMAJOR_AXIS":"6925.481","PERIOD":"95.595","CENTER_NAME":"EARTH"},{"APOAPSIS":"548.095","EPOCH":"2023-04-20T19:34:32.204064","COUNTRY_CODE":"US","SITE":"AFETR","RCS_SIZE":"LARGE","OBJECT_NAME":"STARLINK-2305","TLE_LINE1":"1 47989U 21024N   23110.81565051  .00016753  00000-0  11427-2 0  9993","MEAN_MOTION_DDOT":"0.0000000000000","GP_ID":"230459123","FILE":"3891109","OBJECT_TYPE":"PAYLOAD","OBJECT_ID":"2021-024N","MEAN_MOTION":"15.06342087","TIME_SYSTEM":"UTC","REV_AT_EPOCH":"11692","RA_OF_ASC_NODE":"297.6498","ARG_OF_PERICENTER":"86.5252","CLASSIFICATION_TYPE":"U","NORAD_CAT_ID":"47989","MEAN_ANOMALY":"273.5854","INCLINATION":"53.0535","ELEMENT_SET_NO":"999","BSTAR":"0.00114270000000","MEAN_ELEMENT_THEORY":"SGP4","DECAY_DATE":null,"MEAN_MOTION_DOT":"0.00016753","EPHEMERIS_TYPE":"0","LAUNCH_DATE":"2021-03-24","PERIOD":"95.596","SEMIMAJOR_AXIS":"6925.526","CENTER_NAME":"EARTH","TLE_LINE2":"2 47989  53.0535 297.6498 0001017  86.5252 273.5854 15.06342087116921","PERIAPSIS":"546.687","REF_FRAME":"TEME","ECCENTRICITY":"0.00010170"},{"BSTAR":"0.00071888000000","MEAN_ELEMENT_THEORY":"SGP4","MEAN_MOTION_DOT":"0.00010449","DECAY_DATE":null,"EPHEMERIS_TYPE":"0","CLASSIFICATION_TYPE":"U","NORAD_CAT_ID":"47990","MEAN_ANOMALY":"305.2010","ELEMENT_SET_NO":"999","INCLINATION":"53.0526","PERIAPSIS":"546.648","REF_FRAME":"TEME","TLE_LINE2":"2 47990  53.0526 300.2447 0000709  54.9046 305.2010 15.06424327116357","ECCENTRICITY":"0.00007090","LAUNCH_DATE":"2021-03-24","SEMIMAJOR_AXIS":"6925.274","PERIOD":"95.591","CENTER_NAME":"EARTH","SITE":"AFETR","RCS_SIZE":"LARGE","OBJECT_NAME":"STARLINK-2307","EPOCH":"2023-04-20T05:41:14.274528","APOAPSIS":"547.630","COUNTRY_CODE":"US","TIME_SYSTEM":"UTC","REV_AT_EPOCH":"11635","ARG_OF_PERICENTER":"54.9046","RA_OF_ASC_NODE":"300.2447","MEAN_MOTION_DDOT":"0.0000000000000","TLE_LINE1":"1 47990U 21024P   23110.23697077  .00010449  00000-0  71888-3 0  9999","FILE":"3890895","GP_ID":"230433799","MEAN_MOTION":"15.06424327","OBJECT_ID":"2021-024P","OBJECT_TYPE":"PAYLOAD"},{"COUNTRY_CODE":"US","EPOCH":"2023-04-20T20:17:41.268192","APOAPSIS":"548.271","OBJECT_NAME":"STARLINK-2279","RCS_SIZE":"LARGE","SITE":"AFETR","OBJECT_TYPE":"PAYLOAD","OBJECT_ID":"2021-024Q","MEAN_MOTION":"15.06394433","GP_ID":"230460624","FILE":"3891109","TLE_LINE1":"1 47991U 21024Q   23110.84561653  .00023254  00000-0  15751-2 0  9991","MEAN_MOTION_DDOT":"0.0000000000000","RA_OF_ASC_NODE":"312.5155","ARG_OF_PERICENTER":"79.4446","REV_AT_EPOCH":"11676","TIME_SYSTEM":"UTC","INCLINATION":"53.0533","ELEMENT_SET_NO":"999","MEAN_ANOMALY":"280.6712","NORAD_CAT_ID":"47991","CLASSIFICATION_TYPE":"U","EPHEMERIS_TYPE":"0","DECAY_DATE":null,"MEAN_MOTION_DOT":"0.00023254","BSTAR":"0.00157510000000","MEAN_ELEMENT_THEORY":"SGP4","CENTER_NAME":"EARTH","PERIOD":"95.592","SEMIMAJOR_AXIS":"6925.366","LAUNCH_DATE":"2021-03-24","ECCENTRICITY":"0.00015020","TLE_LINE2":"2 47991  53.0533 312.5155 0001502  79.4446 280.6712 15.06394433116760","REF_FRAME":"TEME","PERIAPSIS":"546.190"},{"OBJECT_ID":"2021-024R","OBJECT_TYPE":"PAYLOAD","MEAN_MOTION":"15.06369481","GP_ID":"230460875","FILE":"3891109","TLE_LINE1":"1 47992U 21024R   23110.93272503  .00023187  00000-0  15717-2 0  9992","MEAN_MOTION_DDOT":"0.0000000000000","RA_OF_ASC_NODE":"307.2021","ARG_OF_PERICENTER":"76.4006","REV_AT_EPOCH":"11680","TIME_SYSTEM":"UTC","COUNTRY_CODE":"US","APOAPSIS":"548.028","EPOCH":"2023-04-20T22:23:07.442592","OBJECT_NAME":"STARLINK-2229","RCS_SIZE":"LARGE","SITE":"AFETR","CENTER_NAME":"EARTH","PERIOD":"95.594","SEMIMAJOR_AXIS":"6925.442","LAUNCH_DATE":"2021-03-24","ECCENTRICITY":"0.00010410","TLE_LINE2":"2 47992  53.0532 307.2021 0001041  76.4006 283.7098 15.06369481116801","REF_FRAME":"TEME","PERIAPSIS":"546.586","INCLINATION":"53.0532","ELEMENT_SET_NO":"999","MEAN_ANOMALY":"283.7098","NORAD_CAT_ID":"47992","CLASSIFICATION_TYPE":"U","EPHEMERIS_TYPE":"0","DECAY_DATE":null,"MEAN_MOTION_DOT":"0.00023187","BSTAR":"0.00157170000000","MEAN_ELEMENT_THEORY":"SGP4"},{"TLE_LINE2":"2 47993  53.0549 347.0833 0000432  11.8433 348.2566 15.06357744116292","PERIAPSIS":"547.044","REF_FRAME":"TEME","ECCENTRICITY":"0.00004320","LAUNCH_DATE":"2021-03-24","PERIOD":"95.595","SEMIMAJOR_AXIS":"6925.478","CENTER_NAME":"EARTH","BSTAR":"0.00098508000000","MEAN_ELEMENT_THEORY":"SGP4","DECAY_DATE":null,"MEAN_MOTION_DOT":"0.00014405","EPHEMERIS_TYPE":"0","CLASSIFICATION_TYPE":"U","NORAD_CAT_ID":"47993","MEAN_ANOMALY":"348.2566","INCLINATION":"53.0549","ELEMENT_SET_NO":"999","TIME_SYSTEM":"UTC","REV_AT_EPOCH":"11629","RA_OF_ASC_NODE":"347.0833","ARG_OF_PERICENTER":"11.8433","TLE_LINE1":"1 47993U 21024S   23110.94006294  .00014405  00000-0  98508-3 0  9999","MEAN_MOTION_DDOT":"0.0000000000000","GP_ID":"230459623","FILE":"3891109","OBJECT_ID":"2021-024S","OBJECT_TYPE":"PAYLOAD","MEAN_MOTION":"15.06357744","SITE":"AFETR","RCS_SIZE":"LARGE","OBJECT_NAME":"STARLINK-2273","APOAPSIS":"547.642","EPOCH":"2023-04-20T22:33:41.438016","COUNTRY_CODE":"US"},{"LAUNCH_DATE":"2021-03-24","CENTER_NAME":"EARTH","SEMIMAJOR_AXIS":"6925.091","PERIOD":"95.587","PERIAPSIS":"546.150","REF_FRAME":"TEME","TLE_LINE2":"2 47994  53.0559   6.2322 0001163  87.3855 272.7267 15.06484093115880","ECCENTRICITY":"0.00011630","NORAD_CAT_ID":"47994","CLASSIFICATION_TYPE":"U","ELEMENT_SET_NO":"999","INCLINATION":"53.0559","MEAN_ANOMALY":"272.7267","MEAN_MOTION_DOT":"0.00037362","DECAY_DATE":null,"MEAN_ELEMENT_THEORY":"SGP4","BSTAR":"0.00250820000000","EPHEMERIS_TYPE":"0","MEAN_MOTION_DDOT":"0.0000000000000","TLE_LINE1":"1 47994U 21024T   23110.01532830  .00037362  00000-0  25082-2 0  9991","MEAN_MOTION":"15.06484093","OBJECT_ID":"2021-024T","OBJECT_TYPE":"PAYLOAD","FILE":"3890827","GP_ID":"230427850","TIME_SYSTEM":"UTC","ARG_OF_PERICENTER":"87.3855","RA_OF_ASC_NODE":"6.2322","REV_AT_EPOCH":"11588","EPOCH":"2023-04-20T00:22:04.365120","APOAPSIS":"547.761","COUNTRY_CODE":"US","RCS_SIZE":"LARGE","SITE":"AFETR","OBJECT_NAME":"STARLINK-2290"},{"ARG_OF_PERICENTER":"78.3128","RA_OF_ASC_NODE":"331.5182","REV_AT_EPOCH":"11638","TIME_SYSTEM":"UTC","MEAN_MOTION":"15.06477113","OBJECT_ID":"2021-024U","OBJECT_TYPE":"PAYLOAD","FILE":"3890827","GP_ID":"230427600","MEAN_MOTION_DDOT":"0.0000000000000","TLE_LINE1":"1 47995U 21024U   23110.02413697  .00039771  00000-0  26683-2 0  9996","OBJECT_NAME":"STARLINK-2309","RCS_SIZE":"LARGE","SITE":"AFETR","COUNTRY_CODE":"US","EPOCH":"2023-04-20T00:34:45.434208","APOAPSIS":"547.479","ECCENTRICITY":"0.00007250","REF_FRAME":"TEME","PERIAPSIS":"546.475","TLE_LINE2":"2 47995  53.0536 331.5182 0000725  78.3128 281.7942 15.06477113116381","CENTER_NAME":"EARTH","SEMIMAJOR_AXIS":"6925.112","PERIOD":"95.587","LAUNCH_DATE":"2021-03-24","EPHEMERIS_TYPE":"0","MEAN_MOTION_DOT":"0.00039771","DECAY_DATE":null,"BSTAR":"0.00266830000000","MEAN_ELEMENT_THEORY":"SGP4","ELEMENT_SET_NO":"999","INCLINATION":"53.0536","MEAN_ANOMALY":"281.7942","NORAD_CAT_ID":"47995","CLASSIFICATION_TYPE":"U"}];
